{
  "norad_id": 43802,
  "name": "SKYSAT-C13",
  "history": [
    {
      "epoch": "2026-03-28T16:23:19.954176Z",
      "apogee_km": 332.7560220039768,
      "perigee_km": 325.36334981676646,
      "latitude_deg": 2.3231535982664367e-05,
      "longitude_deg": 63.47195172061824,
      "height_km": 335.3820100259153,
      "semi_major_axis_km": 6707.196685910371,
      "eccentricity": 0.0005511,
      "inclination_deg": 96.9362,
      "raan_deg": 135.4049,
      "arg_perigee_deg": 148.1924,
      "mean_anomaly_deg": 211.9679,
      "mean_motion_rev_day": 15.80487986
    }
  ]
}